[{"OBJECT_NAME":"STARLINK-4456","OBJECT_ID":"2022-105AB","EPOCH":"2026-03-09T15:40:05.630016","MEAN_MOTION":15.05648277,"ECCENTRICITY":0.0002237,"INCLINATION":97.6019,"RA_OF_ASC_NODE":311.192,"ARG_OF_PERICENTER":83.0977,"MEAN_ANOMALY":277.0504,"EPHEMERIS_TYPE":0,"CLASSIFICATION_TYPE":"U","NORAD_CAT_ID":53673,"ELEMENT_SET_NO":999,"REV_AT_EPOCH":19329,"BSTAR":-2.3807e-6,"MEAN_MOTION_DOT":-9.5e-7,"MEAN_MOTION_DDOT":0},{"OBJECT_NAME":"COSMOS 2251 DEB","OBJECT_ID":"1993-036BC","EPOCH":"2026-03-09T15:03:07.178688","MEAN_MOTION":15.0931248,"ECCENTRICITY":0.0027782,"INCLINATION":73.8339,"RA_OF_ASC_NODE":121.9492,"ARG_OF_PERICENTER":197.5511,"MEAN_ANOMALY":285.2146,"EPHEMERIS_TYPE":0,"CLASSIFICATION_TYPE":"U","NORAD_CAT_ID":33811,"ELEMENT_SET_NO":999,"REV_AT_EPOCH":91327,"BSTAR":0.0014101,"MEAN_MOTION_DOT":0.00022722,"MEAN_MOTION_DDOT":0}]
